NORAD_CAT_ID,OBJECT_NAME,OBJECT_TYPE,EPOCH,MEAN_MOTION,ECCENTRICITY,INCLINATION,RA_OF_ASC_NODE,ARG_OF_PERICENTER,MEAN_ANOMALY,BSTAR,MEAN_MOTION_DOT,MEAN_MOTION_DDOT,TLE_LINE0,TLE_LINE1,TLE_LINE2,SEMIMAJOR_AXIS,PERIOD,APOGEE,PERIGEE,DECAYED
54190.0,STARLINK-5281,PAYLOAD,2022-12-19 16:55:16,15.73224501,0.0003652,53.2144,243.2765,6.1299,353.9765,7.3759e-05,9.754e-05,0.0,0 STARLINK-5281,1 54190U 22141AK  22353.70505316  .00009754  00000-0  73759-4 0  9991,2 54190  53.2144 243.2765 0003652   6.1299 353.9765 15.73224501  8558,6727.825,91.532,352.147,347.233,0.0
54190.0,STARLINK-5281,PAYLOAD,2022-12-20 09:41:32,15.73244712,0.0003278,53.2138,239.8163,7.4814,352.6254,9.3809e-05,0.0001259,0.0,0 STARLINK-5281,1 54190U 22141AK  22354.40384511  .00012590  00000-0  93809-4 0  9991,2 54190  53.2138 239.8163 0003278   7.4814 352.6254 15.73244712  8437,6727.768,91.531,351.838,347.427,0.0
54190.0,STARLINK-5281,PAYLOAD,2022-12-21 02:27:50,15.73176143,0.0003078,53.2138,236.3582,9.8761,350.2319,-0.00011312,-0.00016455,0.0,0 STARLINK-5281,1 54190U 22141AK  22355.10266625 -.00016455  00000-0 -11312-3 0  9998,2 54190  53.2138 236.3582 0003078   9.8761 350.2319 15.73176143  8774,6727.9630000000025,91.535,351.899,347.75699999999995,0.0
54190.0,STARLINK-5281,PAYLOAD,2022-12-22 01:20:04,15.73175142,0.0003309,53.2137,231.6421,13.4767,346.634,-1.7230999999999998e-05,-3.039e-05,0.0,0 STARLINK-5281,1 54190U 22141AK  22356.05560534 -.00003039  00000-0 -17231-4 0  9990,2 54190  53.2137 231.6421 0003309  13.4767 346.6340 15.73175142  8925,6727.965999999999,91.535,352.057,347.605,0.0
54190.0,STARLINK-5281,PAYLOAD,2022-12-22 08:57:28,15.73193069,0.0003292,53.2137,230.0709,15.8038,344.3084,4.3378e-05,5.468e-05,0.0,0 STARLINK-5281,1 54190U 22141AK  22356.37324573  .00005468  00000-0  43378-4 0  9993,2 54190  53.2137 230.0709 0003292  15.8038 344.3084 15.73193069  8978,6727.915,91.534,351.995,347.565,0.0
54190.0,STARLINK-5281,PAYLOAD,2022-12-22 21:09:19,15.73205196,0.000321,53.2118,227.5573,6.4746,353.6315,0.0001099,0.00014835,0.0,0 STARLINK-5281,1 54190U 22141AK  22356.88147249  .00014835  00000-0  10990-3 0  9993,2 54190  53.2118 227.5573 0003210   6.4746 353.6315 15.73205196  8828,6727.88,91.533,351.905,347.586,0.0
54190.0,STARLINK-5281,PAYLOAD,2022-12-23 00:12:16,15.73212366,0.0003395,53.2127,226.9294,9.2792,350.829,0.00011258,0.00015218,0.0,0 STARLINK-5281,1 54190U 22141AK  22357.00852698  .00015218  00000-0  11258-3 0  9993,2 54190  53.2127 226.9294 0003395   9.2792 350.8290 15.73212366  9073,6727.86,91.532,352.009,347.441,0.0
54190.0,STARLINK-5281,PAYLOAD,2022-12-23 23:04:27,15.73237822,0.0003617,53.2129,222.2112,12.6046,347.5064,5.338e-05,6.888e-05,0.0,0 STARLINK-5281,1 54190U 22141AK  22357.96142890  .00006888  00000-0  53380-4 0  9990,2 54190  53.2129 222.2112 0003617  12.6046 347.5064 15.73237822  8996,6727.7869999999975,91.531,352.086,347.219,0.0
54190.0,STARLINK-5281,PAYLOAD,2022-12-24 18:53:38,15.73284308,0.0002972,53.2119,218.1259,8.3693,351.7376,8.232399999999999e-05,0.00010989,0.0,0 STARLINK-5281,1 54190U 22141AK  22358.78725038  .00010989  00000-0  82324-4 0  9999,2 54190  53.2119 218.1259 0002972   8.3693 351.7376 15.73284308  9359,6727.655,91.528,351.519,347.52,0.0
54190.0,STARLINK-5281,PAYLOAD,2022-12-24 20:25:09,15.73230984,0.0001725,53.2116,217.8113,2.4134,357.6894,6.8911e-06,3.48e-06,0.0,0 STARLINK-5281,1 54190U 22141AK  22358.85080393  .00000348  00000-0  68911-5 0  9990,2 54190  53.2116 217.8113 0001725   2.4134 357.6894 15.73230984  9138,6727.807,91.531,350.832,348.511,0.0
54190.0,STARLINK-5281,PAYLOAD,2022-12-25 05:34:02,15.73212614,0.0003552,53.2124,215.9303,4.398,355.7071,-2.0145e-05,-3.453e-05,0.0,0 STARLINK-5281,1 54190U 22141AK  22359.23197777 -.00003453  00000-0 -20145-4 0  9996,2 54190  53.2124 215.9303 0003552   4.3980 355.7071 15.73212614  9425,6727.859,91.532,352.11400000000015,347.334,0.0
54190.0,STARLINK-5281,PAYLOAD,2022-12-25 20:48:51,15.73204118,0.0003505,53.2136,212.7813,10.7159,349.3935,-4.2318e-05,-6.561e-05,0.0,0 STARLINK-5281,1 54190U 22141AK  22359.86726324 -.00006561  00000-0 -42318-4 0  9990,2 54190  53.2136 212.7813 0003505  10.7159 349.3935 15.73204118  9299,6727.8830000000025,91.533,352.107,347.39,0.0
54190.0,STARLINK-5281,PAYLOAD,2022-12-26 01:23:21,15.731640900000002,0.000427,53.2143,211.8344,16.363,343.7528,-8.0298e-05,-0.00011867,0.0,0 STARLINK-5281,1 54190U 22141AK  22360.05789279 -.00011867  00000-0 -80298-4 0  9995,2 54190  53.2143 211.8344 0004270  16.3630 343.7528 15.73164090  9551,6727.998000000001,91.535,352.735,346.99,0.0
54190.0,STARLINK-5281,PAYLOAD,2022-12-26 04:26:34,15.72947477,0.0002941,53.2148,211.2095,346.8404,13.2539,-0.00029088,-0.00040819,0.0,0 STARLINK-5281,1 54190U 22141AK  22360.18512458 -.00040819  00000-0 -29088-3 0  9990,2 54190  53.2148 211.2095 0002941 346.8404  13.2539 15.72947477  9576,6728.615,91.548,352.459,348.501,0.0
54190.0,STARLINK-5281,PAYLOAD,2022-12-26 16:38:41,15.72815191,0.000328,53.2153,208.6958,352.5049,7.5922,-0.00032939,-0.0004586,0.0,0 STARLINK-5281,1 54190U 22141AK  22360.69353237 -.00045860  00000-0 -32939-3 0  9994,2 54190  53.2153 208.6958 0003280 352.5049   7.5922 15.72815191  9654,6728.993,91.556,353.065,348.65,0.0
54190.0,STARLINK-5281,PAYLOAD,2022-12-26 21:13:15,15.72743193,0.0007264999999999,53.2151,207.7536,287.6694,72.3533,-0.00038139,-0.00052876,0.0,0 STARLINK-5281,1 54190U 22141AK  22360.88420158 -.00052876  00000-0 -38139-3 0  9995,2 54190  53.2151 207.7536 0007265 287.6694  72.3533 15.72743193  9688,6729.198,91.56,355.952,346.1740000000001,0.0
54190.0,STARLINK-5281,PAYLOAD,2022-12-27 22:00:00,15.68683051,0.0001944,53.2169,202.6637,260.6431,177.4402,-0.011662,-0.01219109,0.0,0 STARLINK-5281,1 54190U 22141AK  22361.91667824 -.01219109  00000-0 -11662-1 0  9998,2 54190  53.2169 202.6637 0001944 260.6431 177.4402 15.68683051  9842,6740.804,91.797,363.98,361.359,0.0
54190.0,STARLINK-5281,PAYLOAD,2022-12-28 14:00:01,15.67020783,0.0001281,53.2168,199.3885,64.7038,178.2848,-0.011906,-0.01167397,0.0,0 STARLINK-5281,1 54190U 22141AK  22362.58334491 -.01167397  00000-0 -11906-1 0  9995,2 54190  53.2168 199.3885 0001281  64.7038 178.2848 15.67020783  1300,6745.57,91.894,368.299,366.571,0.0
54190.0,STARLINK-5281,PAYLOAD,2022-12-28 22:00:00,15.66183533,0.000103,53.2171,197.7571,85.9761,238.0004,-0.0119569999999999,-0.01136195,0.0,0 STARLINK-5281,1 54190U 22141AK  22362.91667824 -.01136195  00000-0 -11957-1 0  9999,2 54190  53.2171 197.7571 0001030  85.9761 238.0004 15.66183533  1309,6747.974,91.943,370.534,369.144,0.0
54190.0,STARLINK-5281,PAYLOAD,2022-12-29 14:00:01,15.64560275,0.0001365,53.2167,194.4941,61.192,61.8049,-0.012816,-0.0114041,0.0,0 STARLINK-5281,1 54190U 22141AK  22363.58334491 -.01140410  00000-0 -12816-1 0  9994,2 54190  53.2167 194.4941 0001365  61.1920  61.8049 15.64560275  1304,6752.641,92.039,375.427,373.584,0.0
54190.0,STARLINK-5281,PAYLOAD,2022-12-29 22:00:00,15.63754948,0.000127,53.2169,192.8687,83.2901,117.7457,-0.01338,-0.01151739,0.0,0 STARLINK-5281,1 54190U 22141AK  22363.91667824 -.01151739  00000-0 -13380-1 0  9993,2 54190  53.2169 192.8687 0001270  83.2901 117.7457 15.63754948 10152,6754.959,92.086,377.682,375.966,0.0
54190.0,STARLINK-5281,PAYLOAD,2022-12-30 14:00:01,15.62122817,0.0001289,53.2169,189.6176,43.8907,310.3029,-0.014182,-0.01145275,0.0,0 STARLINK-5281,1 54190U 22141AK  22364.58334491 -.01145275  00000-0 -14182-1 0  9997,2 54190  53.2169 189.6176 0001289  43.8907 310.3029 15.62122817  1303,6759.663000000001,92.182,382.4,380.657,0.0
54190.0,STARLINK-5281,PAYLOAD,2022-12-30 22:00:00,15.61301044,0.0001174,53.2173,187.9978,70.9905,358.3163,-0.014486,-0.01133983,0.0,0 STARLINK-5281,1 54190U 22141AK  22364.91667824 -.01133983  00000-0 -14486-1 0  9993,2 54190  53.2173 187.9978 0001174  70.9905 358.3163 15.61301044 10313,6762.035,92.231,384.694,383.106,0.0
54190.0,STARLINK-5281,PAYLOAD,2022-12-31 14:00:01,15.59676781,0.0001337,53.2169,184.7588,58.0122,158.5813,-0.015475,-0.01137328,0.0,0 STARLINK-5281,1 54190U 22141AK  22365.58334491 -.01137328  00000-0 -15475-1 0  9994,2 54190  53.2169 184.7588 0001337  58.0122 158.5813 15.59676781 10412,6766.729,92.327,389.49800000000016,387.689,0.0
54190.0,STARLINK-5281,PAYLOAD,2022-12-31 22:00:00,15.58861589,0.0001159999999999,53.217,183.1452,74.0655,214.7042,-0.0159319999999999,-0.01135082,0.0,0 STARLINK-5281,1 54190U 22141AK  22365.91667824 -.01135082  00000-0 -15932-1 0  9993,2 54190  53.2170 183.1452 0001160  74.0655 214.7042 15.58861589  1308,6769.0880000000025,92.375,391.73800000000006,390.167,0.0
54190.0,STARLINK-5281,PAYLOAD,2023-01-01 14:00:01,15.57242264,0.0001367,53.2166,179.9177,51.7078,18.4797,-0.017128,-0.01146438,0.0,0 STARLINK-5281,1 54190U 22141AK  23001.58334491 -.01146438  00000-0 -17128-1 0  9991,2 54190  53.2166 179.9177 0001367  51.7078  18.4797 15.57242264 10577,6773.779,92.471,396.57,394.718,0.0
54190.0,STARLINK-5281,PAYLOAD,2023-01-02 00:00:00,15.56214491,0.0001264999999999,53.2171,177.9069,63.4717,183.121,-0.017527,-0.01130385,0.0,0 STARLINK-5281,1 54190U 22141AK  23002.00001157 -.01130385  00000-0 -17527-1 0  9996,2 54190  53.2171 177.9069 0001265  63.4717 183.1210 15.56214491  1309,6776.762,92.532,399.484,397.769,0.0
54190.0,STARLINK-5281,PAYLOAD,2023-01-02 14:00:01,15.54802916,0.0001415,53.2168,175.0945,55.822,219.1605,-0.018781,-0.01147518,0.0,0 STARLINK-5281,1 54190U 22141AK  23002.58334491 -.01147518  00000-0 -18781-1 0  9998,2 54190  53.2168 175.0945 0001415  55.8220 219.1605 15.54802916 10736,6780.863,92.616,403.687,401.768,0.0
54190.0,STARLINK-5281,PAYLOAD,2023-01-02 22:00:00,15.53995346,0.0001165,53.2168,173.4925,52.0742,289.2136,-0.01949,-0.0115499,0.0,0 STARLINK-5281,1 54190U 22141AK  23002.91667824 -.01154990  00000-0 -19490-1 0  9994,2 54190  53.2168 173.4925 0001165  52.0742 289.2136 15.53995346  1305,6783.212,92.664,405.867,404.286,0.0
